[{"OBJECT_NAME":"A-SEANSAT-PG1","OBJECT_ID":"2023-091AH","EPOCH":"2026-03-09T22:32:06.495648","MEAN_MOTION":15.33422293,"ECCENTRICITY":0.00088895,"INCLINATION":97.5184,"RA_OF_ASC_NODE":136.6191,"ARG_OF_PERICENTER":78.3219,"MEAN_ANOMALY":281.902,"EPHEMERIS_TYPE":0,"CLASSIFICATION_TYPE":"U","NORAD_CAT_ID":57197,"ELEMENT_SET_NO":999,"REV_AT_EPOCH":14948,"BSTAR":0.0007038551,"MEAN_MOTION_DOT":0.00022724,"MEAN_MOTION_DDOT":0},{"OBJECT_NAME":"STARLINK-31991","OBJECT_ID":"2024-107U","EPOCH":"2026-03-09T09:48:09.988416","MEAN_MOTION":15.3022442,"ECCENTRICITY":0.00012719,"INCLINATION":53.1591,"RA_OF_ASC_NODE":66.8176,"ARG_OF_PERICENTER":93.8588,"MEAN_ANOMALY":266.2558,"EPHEMERIS_TYPE":0,"CLASSIFICATION_TYPE":"U","NORAD_CAT_ID":59963,"ELEMENT_SET_NO":999,"REV_AT_EPOCH":9975,"BSTAR":0.00028843686,"MEAN_MOTION_DOT":8.199e-5,"MEAN_MOTION_DDOT":0}]
